GSAT-10                 
1 38779U 12051B   26180.80841481 -.00000154  00000+0  00000+0 0  9993
2 38779   0.0552 254.1806 0008190 197.7621 199.9950  1.00271319 50220
INTELSAT 23 (IS-23)     
1 38867U 12057A   26181.14827225 -.00000274  00000+0  00000+0 0  9998
2 38867   0.0187  52.2391 0000496  72.4763 153.8978  1.00275203 50084
BEIDOU-2 G6             
1 38953U 12059A   26181.10416896 -.00000168  00000+0  00000+0 0  9992
2 38953   4.4533  73.3900 0009554 329.4155 356.9002  1.00270944 50033
LUCH-5B                 
1 38977U 12061A   26181.44065475 -.00000133  00000+0  00000+0 0  9993
2 38977  10.5117  49.7507 0003001 132.8087 238.3434  1.00272809 49746
YAMAL 300K              
1 38978U 12061B   26181.62813675  .00000000  00000+0  00000+0 0  9999
2 38978   0.0179  34.2967 0000690 209.3083  84.1792  1.00269705 49762
STAR ONE C3             
1 38991U 12062A   26181.50033400 -.00000238  00000+0  00000+0 0  9996
2 38991   0.0198 296.8460 0002653 174.5633 272.2882  1.00271492 49897
EUTELSAT 21B            
1 38992U 12062B   26181.02034809  .00000141  00000+0  00000+0 0  9990
2 38992   0.0669  12.0277 0002837  79.6656 215.3223  1.00273434 49951
ECHOSTAR 16             
1 39008U 12065A   26180.71882459  .00000000  00000+0  00000+0 0  9993
2 39008   0.0264  38.1856 0001729  50.1641  26.7227  1.00263570 49778
ZHONGXING-12            
1 39017U 12067A   26180.89263747 -.00000196  00000+0  00000+0 0  9994
2 39017   0.0351  90.1497 0003297 354.7119 241.9597  1.00272708 49638
EUTELSAT 70B            
1 39020U 12069A   26181.52922391 -.00000032  00000+0  00000+0 0  9997
2 39020   0.0606   1.8261 0003453  97.0403  80.7439  1.00270926 49645
YAMAL 402               
1 39022U 12070A   26181.52610390  .00000096  00000+0  00000+0 0  9993
2 39022   1.2976  84.0080 0004078  12.2085  66.6634  1.00272204 49530
SKYNET 5D               
1 39034U 12075A   26181.52567057  .00000110  00000+0  00000+0 0  9999
2 39034   0.0665 353.0650 0003898 112.3376  55.2003  1.00270221 49295
MEXSAT 3                
1 39035U 12075B   26181.60304319  .00000000  00000+0  00000+0 0  9997
2 39035   0.0271  42.3685 0001621  53.0009 285.5921  1.00268180  7181
TDRS 11                 
1 39070U 13004A   26181.54476046  .00000088  00000+0  00000+0 0  9995
2 39070   3.5402  31.4753 0004943  24.9027 243.9295  1.00274209 46821
AMAZONAS 3              
1 39078U 13006A   26181.50310735 -.00000272  00000+0  00000+0 0  9999
2 39078   0.0368 208.4346 0003123 291.2612 258.9959  1.00272819 45045
AZERSPACE 1             
1 39079U 13006B   26181.52437056  .00000144  00000+0  00000+0 0  9995
2 39079   0.0094 350.2867 0001811 133.3690  29.6980  1.00270660 48941
SBIRS GEO-2 (USA 241)   
1 39120U 13011A   26181.50536069 -.00000279  00000+0  00000+0 0  9990
2 39120   4.5176  52.5125 0001968  39.5995 318.5833  1.00271490 48663
EUTELSAT 117 WEST A     
1 39122U 13012A   26181.60374134 -.00000002  00000+0  00000+0 0  9991
2 39122   0.0212 319.8583 0003048 139.0892 280.2589  1.00271362 48567
ANIK G1                 
1 39127U 13014A   26181.60026758 -.00000063  00000+0  00000+0 0  9991
2 39127   0.0171 337.4868 0001982 122.5994 287.3675  1.00272041 48382
ZHONGXING-11            
1 39157U 13020A   26181.73080771 -.00000280  00000+0  00000+0 0  9991
2 39157   0.0127 359.4962 0002628  81.5149 198.7846  1.00270396 48037
EUTELSAT 7B             
1 39163U 13022A   26181.51662741  .00000059  00000+0  00000+0 0  9992
2 39163   0.0670 341.7699 0004292  61.8773  67.9377  1.00274263 48089
WGS F5 (USA 243)        
1 39168U 13024A   26181.14835891 -.00000274  00000+0  00000+0 0  9996
2 39168   0.0136 346.6217 0000413  88.7984 203.7110  1.00272227 47301
SES-6                   
1 39172U 13026A   26181.50718069 -.00000250  00000+0  00000+0 0  9994
2 39172   0.0252 322.6498 0002948 152.5741 305.4427  1.00272531 47855
IRNSS-1A                
1 39199U 13034A   26180.74208196  .00000056  00000+0  00000+0 0  9995
2 39199  35.7475  63.6907 0017659 182.5365 353.7704  1.00278663 47499
MUOS-2                  
1 39206U 13036A   26181.55919508 -.00000006  00000+0  00000+0 0  9998
2 39206   5.0213  45.5469 0051811 176.7085  69.6638  1.00269928 47327
ALPHASAT                
1 39215U 13038A   26180.83870249  .00000143  00000+0  00000+0 0  9999
2 39215   2.9983   1.2416 0002463 117.7072 125.7902  1.00268060 44149
INSAT-3D                
1 39216U 13038B   26181.54085192 -.00000330  00000+0  00000+0 0  9993
2 39216   1.9590  82.3849 0001136  10.1377 150.3013  1.00270008 47216
WGS F6 (USA 244)        
1 39222U 13041A   26180.70423968  .00000100  00000+0  00000+0 0  9992
2 39222   0.0193  14.3356 0000991 194.1446 187.6422  1.00273394 46181
ES'HAIL 1               
1 39233U 13044A   26181.16383523  .00000154  00000+0  00000+0 0  9999
2 39233   0.0497 341.2009 0002289 114.4541 267.0696  1.00275037 46755
GSAT-7                  
1 39234U 13044B   26181.52983058 -.00000066  00000+0  00000+0 0  9992
2 39234   0.1150  91.1380 0002598 185.0902 267.0591  1.00271937 45392
AMOS-4                  
1 39237U 13045A   26181.52809723  .00000018  00000+0  00000+0 0  9998
2 39237   0.0106  50.2622 0002228  22.4475 100.9947  1.00271438 47094
AEHF-3 (USA 246)        
1 39256U 13050A   26181.60637470  .00000035  00000+0  00000+0 0  9991
2 39256   5.3259  67.0621 0088082 188.0425 117.6970  1.00275935 45784
