OBJECT_NAME,OBJECT_ID,EPOCH,MEAN_MOTION,ECCENTRICITY,INCLINATION,RA_OF_ASC_NODE,ARG_OF_PERICENTER,MEAN_ANOMALY,EPHEMERIS_TYPE,CLASSIFICATION_TYPE,NORAD_CAT_ID,ELEMENT_SET_NO,REV_AT_EPOCH,BSTAR,MEAN_MOTION_DOT,MEAN_MOTION_DDOT
GSAT-10,2012-051B,2026-06-29T19:24:07.039584,1.00271319,.00081909,0.0552,254.1806,197.7621,199.9950,0,U,38779,999,5022,0,-.154E-5,0
INTELSAT 23 (IS-23),2012-057A,2026-06-30T03:33:30.722400,1.00275203,.0000496,0.0187,52.2391,72.4763,153.8978,0,U,38867,999,5008,0,-.274E-5,0
BEIDOU-2 G6,2012-059A,2026-06-30T02:30:00.198144,1.00270944,.00095545,4.4533,73.3900,329.4155,356.9002,0,U,38953,999,5003,0,-.168E-5,0
LUCH-5B,2012-061A,2026-06-30T10:34:32.570400,1.00272809,.00030012,10.5117,49.7507,132.8087,238.3434,0,U,38977,999,4974,0,-.133E-5,0
YAMAL 300K,2012-061B,2026-06-30T15:04:31.015200,1.00269705,.000069,0.0179,34.2967,209.3083,84.1792,0,U,38978,999,4976,0,0,0
STAR ONE C3,2012-062A,2026-06-30T12:00:28.857600,1.00271492,.00026532,0.0198,296.8460,174.5633,272.2882,0,U,38991,999,4989,0,-.238E-5,0
EUTELSAT 21B,2012-062B,2026-06-30T00:29:18.074976,1.00273434,.0002837,0.0669,12.0277,79.6656,215.3223,0,U,38992,999,4995,0,.141E-5,0
ECHOSTAR 16,2012-065A,2026-06-29T17:15:06.444576,1.00263570,.00017294,0.0264,38.1856,50.1641,26.7227,0,U,39008,999,4977,0,0,0
ZHONGXING-12,2012-067A,2026-06-29T21:25:23.877408,1.00272708,.00032977,0.0351,90.1497,354.7119,241.9597,0,U,39017,999,4963,0,-.196E-5,0
EUTELSAT 70B,2012-069A,2026-06-30T12:42:04.945824,1.00270926,.00034536,0.0606,1.8261,97.0403,80.7439,0,U,39020,999,4964,0,-.32E-6,0
YAMAL 402,2012-070A,2026-06-30T12:37:35.376960,1.00272204,.00040786,1.2976,84.0080,12.2085,66.6634,0,U,39022,999,4953,0,.96E-6,0
SKYNET 5D,2012-075A,2026-06-30T12:36:57.937248,1.00270221,.00038989,0.0665,353.0650,112.3376,55.2003,0,U,39034,999,4929,0,.11E-5,0
MEXSAT 3,2012-075B,2026-06-30T14:28:22.931616,1.00268180,.00016213,0.0271,42.3685,53.0009,285.5921,0,U,39035,999,718,0,0,0
TDRS 11,2013-004A,2026-06-30T13:04:27.303744,1.00274209,.00049432,3.5402,31.4753,24.9027,243.9295,0,U,39070,999,4682,0,.88E-6,0
AMAZONAS 3,2013-006A,2026-06-30T12:04:28.475040,1.00272819,.00031232,0.0368,208.4346,291.2612,258.9959,0,U,39078,999,4504,0,-.272E-5,0
AZERSPACE 1,2013-006B,2026-06-30T12:35:05.616384,1.00270660,.00018119,0.0094,350.2867,133.3690,29.6980,0,U,39079,999,4894,0,.144E-5,0
SBIRS GEO-2 (USA 241),2013-011A,2026-06-30T12:07:43.163616,1.00271490,.00019681,4.5176,52.5125,39.5995,318.5833,0,U,39120,999,4866,0,-.279E-5,0
EUTELSAT 117 WEST A,2013-012A,2026-06-30T14:29:23.251776,1.00271362,.00030488,0.0212,319.8583,139.0892,280.2589,0,U,39122,999,4856,0,-.2E-7,0
ANIK G1,2013-014A,2026-06-30T14:24:23.118912,1.00272041,.00019822,0.0171,337.4868,122.5994,287.3675,0,U,39127,999,4838,0,-.63E-6,0
ZHONGXING-11,2013-020A,2026-06-30T17:32:21.786144,1.00270396,.0002628,0.0127,359.4962,81.5149,198.7846,0,U,39157,999,4803,0,-.28E-5,0
EUTELSAT 7B,2013-022A,2026-06-30T12:23:56.608224,1.00274263,.00042924,0.0670,341.7699,61.8773,67.9377,0,U,39163,999,4808,0,.59E-6,0
WGS F5 (USA 243),2013-024A,2026-06-30T03:33:38.209824,1.00272227,.0000413,0.0136,346.6217,88.7984,203.7110,0,U,39168,999,4730,0,-.274E-5,0
SES-6,2013-026A,2026-06-30T12:10:20.411616,1.00272531,.00029481,0.0252,322.6498,152.5741,305.4427,0,U,39172,999,4785,0,-.25E-5,0
IRNSS-1A,2013-034A,2026-06-29T17:48:35.881344,1.00278663,.00176596,35.7475,63.6907,182.5365,353.7704,0,U,39199,999,4749,0,.56E-6,0
MUOS-2,2013-036A,2026-06-30T13:25:14.454912,1.00269928,.00518117,5.0213,45.5469,176.7085,69.6638,0,U,39206,999,4732,0,-.6E-7,0
ALPHASAT,2013-038A,2026-06-29T20:07:43.895136,1.00268060,.00024638,2.9983,1.2416,117.7072,125.7902,0,U,39215,999,4414,0,.143E-5,0
INSAT-3D,2013-038B,2026-06-30T12:58:49.605888,1.00270008,.00011365,1.9590,82.3849,10.1377,150.3013,0,U,39216,999,4721,0,-.33E-5,0
WGS F6 (USA 244),2013-041A,2026-06-29T16:54:06.308352,1.00273394,.00009913,0.0193,14.3356,194.1446,187.6422,0,U,39222,999,4618,0,.1E-5,0
ES'HAIL 1,2013-044A,2026-06-30T03:55:55.363872,1.00275037,.00022892,0.0497,341.2009,114.4541,267.0696,0,U,39233,999,4675,0,.154E-5,0
GSAT-7,2013-044B,2026-06-30T12:42:57.362112,1.00271937,.00025989,0.1150,91.1380,185.0902,267.0591,0,U,39234,999,4539,0,-.66E-6,0
AMOS-4,2013-045A,2026-06-30T12:40:27.600672,1.00271438,.00022283,0.0106,50.2622,22.4475,100.9947,0,U,39237,999,4709,0,.18E-6,0
AEHF-3 (USA 246),2013-050A,2026-06-30T14:33:10.774080,1.00275935,.00880825,5.3259,67.0621,188.0425,117.6970,0,U,39256,999,4578,0,.35E-6,0
